0 ARIANE 44L DEB
1 29024U 91003Q   13280.10784619  .00001263  00000-0  52299-2 0  6268
2 29024 006.8583 116.9052 6669759 013.3306 357.8104 02.93013733 90948
0 ARIANE 44L DEB
1 29024U 91003Q   13283.52036897  .00000119  00000-0  84339-3 0  6276
2 29024 006.8667 115.0786 6669099 016.8957 357.4987 02.93014121 91041
0 ARIANE 44L DEB
1 29024U 91003Q   13286.93271590  .00000486  00000-0  19812-2 0  6286
2 29024 006.8727 113.3126 6669630 020.4236 357.0602 02.93019510 91147
0 ARIANE 44L DEB
1 29024U 91003Q   13294.09820112  .00000220  00000-0  13095-2 0  6308
2 29024 006.8761 109.4573 6665001 027.9980 355.9544 02.93032775 91356
0 ARIANE 44L DEB
1 29024U 91003Q   13294.09820112  .00000813  00000-0  38413-2 0  6295
2 29024 006.8785 109.4622 6666042 027.9634 355.9747 02.93036273 91351
